CCSDS_OMM_VERS = 2.0
CREATION_DATE  = 
ORIGINATOR     = 

OBJECT_NAME    = 2026-027A
OBJECT_ID      = 2026-027A
CENTER_NAME    = EARTH
REF_FRAME      = TEME
TIME_SYSTEM    = UTC
MEAN_ELEMENT_THEORY = SGP/SGP4

EPOCH          = 2026-03-03T23:12:48.665952
MEAN_MOTION    = 15.17576096
ECCENTRICITY   = .00098146
INCLINATION    = 97.4898
RA_OF_ASC_NODE = 192.0417
ARG_OF_PERICENTER = 214.9312
MEAN_ANOMALY   = 145.1279

EPHEMERIS_TYPE = 0
CLASSIFICATION_TYPE = U
NORAD_CAT_ID   = 67746
ELEMENT_SET_NO = 999
REV_AT_EPOCH   = 299
BSTAR          = .66894788E-3
MEAN_MOTION_DOT = .134E-3
MEAN_MOTION_DDOT = 0

CCSDS_OMM_VERS = 2.0
CREATION_DATE  = 
ORIGINATOR     = 

OBJECT_NAME    = 2026-027B
OBJECT_ID      = 2026-027B
CENTER_NAME    = EARTH
REF_FRAME      = TEME
TIME_SYSTEM    = UTC
MEAN_ELEMENT_THEORY = SGP/SGP4

EPOCH          = 2026-03-03T23:10:55.367040
MEAN_MOTION    = 15.17676259
ECCENTRICITY   = .00099345
INCLINATION    = 97.4893
RA_OF_ASC_NODE = 192.0419
ARG_OF_PERICENTER = 217.3941
MEAN_ANOMALY   = 142.6602

EPHEMERIS_TYPE = 0
CLASSIFICATION_TYPE = U
NORAD_CAT_ID   = 67747
ELEMENT_SET_NO = 999
REV_AT_EPOCH   = 299
BSTAR          = .64813189E-3
MEAN_MOTION_DOT = .13018E-3
MEAN_MOTION_DDOT = 0

CCSDS_OMM_VERS = 2.0
CREATION_DATE  = 
ORIGINATOR     = 

OBJECT_NAME    = 2026-027C
OBJECT_ID      = 2026-027C
CENTER_NAME    = EARTH
REF_FRAME      = TEME
TIME_SYSTEM    = UTC
MEAN_ELEMENT_THEORY = SGP/SGP4

EPOCH          = 2026-03-03T23:09:00.550080
MEAN_MOTION    = 15.17722105
ECCENTRICITY   = .00102697
INCLINATION    = 97.4905
RA_OF_ASC_NODE = 192.0467
ARG_OF_PERICENTER = 220.0122
MEAN_ANOMALY   = 140.0356

EPHEMERIS_TYPE = 0
CLASSIFICATION_TYPE = U
NORAD_CAT_ID   = 67748
ELEMENT_SET_NO = 999
REV_AT_EPOCH   = 299
BSTAR          = .46751227E-3
MEAN_MOTION_DOT = .9379E-4
MEAN_MOTION_DDOT = 0

CCSDS_OMM_VERS = 2.0
CREATION_DATE  = 
ORIGINATOR     = 

OBJECT_NAME    = 2026-027D
OBJECT_ID      = 2026-027D
CENTER_NAME    = EARTH
REF_FRAME      = TEME
TIME_SYSTEM    = UTC
MEAN_ELEMENT_THEORY = SGP/SGP4

EPOCH          = 2026-03-03T23:05:10.839264
MEAN_MOTION    = 15.18016541
ECCENTRICITY   = .00099897
INCLINATION    = 97.4900
RA_OF_ASC_NODE = 192.0492
ARG_OF_PERICENTER = 225.1784
MEAN_ANOMALY   = 134.8638

EPHEMERIS_TYPE = 0
CLASSIFICATION_TYPE = U
NORAD_CAT_ID   = 67749
ELEMENT_SET_NO = 999
REV_AT_EPOCH   = 294
BSTAR          = .75819882E-3
MEAN_MOTION_DOT = .15395E-3
MEAN_MOTION_DDOT = 0

CCSDS_OMM_VERS = 2.0
CREATION_DATE  = 
ORIGINATOR     = 

OBJECT_NAME    = 2026-027E
OBJECT_ID      = 2026-027E
CENTER_NAME    = EARTH
REF_FRAME      = TEME
TIME_SYSTEM    = UTC
MEAN_ELEMENT_THEORY = SGP/SGP4

EPOCH          = 2026-03-03T23:05:14.782560
MEAN_MOTION    = 15.17983757
ECCENTRICITY   = .00091755
INCLINATION    = 97.4912
RA_OF_ASC_NODE = 192.0522
ARG_OF_PERICENTER = 226.0326
MEAN_ANOMALY   = 134.0152

EPHEMERIS_TYPE = 0
CLASSIFICATION_TYPE = U
NORAD_CAT_ID   = 67750
ELEMENT_SET_NO = 999
REV_AT_EPOCH   = 299
BSTAR          = .65859734E-3
MEAN_MOTION_DOT = .13344E-3
MEAN_MOTION_DDOT = 0

CCSDS_OMM_VERS = 2.0
CREATION_DATE  = 
ORIGINATOR     = 

OBJECT_NAME    = 2026-027F
OBJECT_ID      = 2026-027F
CENTER_NAME    = EARTH
REF_FRAME      = TEME
TIME_SYSTEM    = UTC
MEAN_ELEMENT_THEORY = SGP/SGP4

EPOCH          = 2026-03-03T23:02:41.841600
MEAN_MOTION    = 15.18246753
ECCENTRICITY   = .00103511
INCLINATION    = 97.4911
RA_OF_ASC_NODE = 192.0549
ARG_OF_PERICENTER = 226.6452
MEAN_ANOMALY   = 133.3920

EPHEMERIS_TYPE = 0
CLASSIFICATION_TYPE = U
NORAD_CAT_ID   = 67751
ELEMENT_SET_NO = 999
REV_AT_EPOCH   = 299
BSTAR          = .11007664E-2
MEAN_MOTION_DOT = .22553E-3
MEAN_MOTION_DDOT = 0

CCSDS_OMM_VERS = 2.0
CREATION_DATE  = 
ORIGINATOR     = 

OBJECT_NAME    = 2026-027G
OBJECT_ID      = 2026-027G
CENTER_NAME    = EARTH
REF_FRAME      = TEME
TIME_SYSTEM    = UTC
MEAN_ELEMENT_THEORY = SGP/SGP4

EPOCH          = 2026-03-03T23:03:35.193600
MEAN_MOTION    = 15.18016936
ECCENTRICITY   = .00094232
INCLINATION    = 97.4906
RA_OF_ASC_NODE = 192.0522
ARG_OF_PERICENTER = 226.9265
MEAN_ANOMALY   = 133.1181

EPHEMERIS_TYPE = 0
CLASSIFICATION_TYPE = U
NORAD_CAT_ID   = 67752
ELEMENT_SET_NO = 999
REV_AT_EPOCH   = 299
BSTAR          = .64370224E-3
MEAN_MOTION_DOT = .13054E-3
MEAN_MOTION_DDOT = 0

CCSDS_OMM_VERS = 2.0
CREATION_DATE  = 
ORIGINATOR     = 

OBJECT_NAME    = JIELONG-3 R/B
OBJECT_ID      = 2026-027H
CENTER_NAME    = EARTH
REF_FRAME      = TEME
TIME_SYSTEM    = UTC
MEAN_ELEMENT_THEORY = SGP/SGP4

EPOCH          = 2026-03-03T23:21:52.333632
MEAN_MOTION    = 15.70172727
ECCENTRICITY   = .02321244
INCLINATION    = 97.5133
RA_OF_ASC_NODE = 193.5449
ARG_OF_PERICENTER = 265.8734
MEAN_ANOMALY   = 91.5970

EPHEMERIS_TYPE = 0
CLASSIFICATION_TYPE = U
NORAD_CAT_ID   = 67753
ELEMENT_SET_NO = 999
REV_AT_EPOCH   = 308
BSTAR          = .70982468E-3
MEAN_MOTION_DOT = .467053E-2
MEAN_MOTION_DDOT = .2377382E-5

CCSDS_OMM_VERS = 2.0
CREATION_DATE  = 
ORIGINATOR     = 

OBJECT_NAME    = JIELONG-3 DEB
OBJECT_ID      = 2026-027J
CENTER_NAME    = EARTH
REF_FRAME      = TEME
TIME_SYSTEM    = UTC
MEAN_ELEMENT_THEORY = SGP/SGP4

EPOCH          = 2026-03-03T22:06:43.392384
MEAN_MOTION    = 15.92963274
ECCENTRICITY   = .01606477
INCLINATION    = 97.5065
RA_OF_ASC_NODE = 193.7654
ARG_OF_PERICENTER = 265.2979
MEAN_ANOMALY   = 92.9933

EPHEMERIS_TYPE = 0
CLASSIFICATION_TYPE = U
NORAD_CAT_ID   = 67754
ELEMENT_SET_NO = 999
REV_AT_EPOCH   = 303
BSTAR          = .13662541E-2
MEAN_MOTION_DOT = .173444E-1
MEAN_MOTION_DDOT = .2443845E-5

CCSDS_OMM_VERS = 2.0
CREATION_DATE  = 
ORIGINATOR     = 

OBJECT_NAME    = 2026-028A
OBJECT_ID      = 2026-028A
CENTER_NAME    = EARTH
REF_FRAME      = TEME
TIME_SYSTEM    = UTC
MEAN_ELEMENT_THEORY = SGP/SGP4

EPOCH          = 2026-03-03T07:37:03.601920
MEAN_MOTION    = 0.99524196
ECCENTRICITY   = .0042004
INCLINATION    = 0.4855
RA_OF_ASC_NODE = 289.5469
ARG_OF_PERICENTER = 229.3235
MEAN_ANOMALY   = 201.2676

EPHEMERIS_TYPE = 0
CLASSIFICATION_TYPE = U
NORAD_CAT_ID   = 67756
ELEMENT_SET_NO = 999
REV_AT_EPOCH   = 19
BSTAR          = 0
MEAN_MOTION_DOT = -.45E-6
MEAN_MOTION_DDOT = 0

CCSDS_OMM_VERS = 2.0
CREATION_DATE  = 
ORIGINATOR     = 

OBJECT_NAME    = JAM-E JAM 1
OBJECT_ID      = 2026-028B
CENTER_NAME    = EARTH
REF_FRAME      = TEME
TIME_SYSTEM    = UTC
MEAN_ELEMENT_THEORY = SGP/SGP4

EPOCH          = 2026-03-03T10:55:56.872704
MEAN_MOTION    = 1.00297728
ECCENTRICITY   = .00082192
INCLINATION    = 0.5076
RA_OF_ASC_NODE = 285.5715
ARG_OF_PERICENTER = 123.4127
MEAN_ANOMALY   = 311.0498

EPHEMERIS_TYPE = 0
CLASSIFICATION_TYPE = U
NORAD_CAT_ID   = 67757
ELEMENT_SET_NO = 999
REV_AT_EPOCH   = 6
BSTAR          = 0
MEAN_MOTION_DOT = .14E-5
MEAN_MOTION_DDOT = 0

CCSDS_OMM_VERS = 2.0
CREATION_DATE  = 
ORIGINATOR     = 

OBJECT_NAME    = KUIPER-00159
OBJECT_ID      = 2026-030A
CENTER_NAME    = EARTH
REF_FRAME      = TEME
TIME_SYSTEM    = UTC
MEAN_ELEMENT_THEORY = SGP/SGP4

EPOCH          = 2026-03-03T21:43:40.096416
MEAN_MOTION    = 15.35461675
ECCENTRICITY   = .00044916
INCLINATION    = 51.8843
RA_OF_ASC_NODE = 247.0566
ARG_OF_PERICENTER = 29.1743
MEAN_ANOMALY   = 330.9493

EPHEMERIS_TYPE = 0
CLASSIFICATION_TYPE = U
NORAD_CAT_ID   = 67764
ELEMENT_SET_NO = 999
REV_AT_EPOCH   = 420
BSTAR          = .11208268E-2
MEAN_MOTION_DOT = .3904E-3
MEAN_MOTION_DDOT = 0

