2026-027A               
1 67746U 26027A   26062.96722993  .00013400  00000+0  66895-3 0  9994
2 67746  97.4898 192.0417 0009814 214.9312 145.1279 15.17576096  2991
2026-027B               
1 67747U 26027B   26062.96591860  .00013018  00000+0  64813-3 0  9995
2 67747  97.4893 192.0419 0009934 217.3941 142.6602 15.17676259  2991
2026-027C               
1 67748U 26027C   26062.96458970  .00009379  00000+0  46751-3 0  9996
2 67748  97.4905 192.0467 0010269 220.0122 140.0356 15.17722105  2994
2026-027D               
1 67749U 26027D   26062.96193101  .00015395  00000+0  75820-3 0  9993
2 67749  97.4900 192.0492 0009989 225.1784 134.8638 15.18016541  2945
2026-027E               
1 67750U 26027E   26062.96197665  .00013344  00000+0  65860-3 0  9999
2 67750  97.4912 192.0522 0009175 226.0326 134.0152 15.17983757  2992
2026-027F               
1 67751U 26027F   26062.96020650  .00022553  00000+0  11008-2 0  9995
2 67751  97.4911 192.0549 0010351 226.6452 133.3920 15.18246753  2999
2026-027G               
1 67752U 26027G   26062.96082400  .00013054  00000+0  64370-3 0  9994
2 67752  97.4906 192.0522 0009423 226.9265 133.1181 15.18016936  2993
JIELONG-3 R/B           
1 67753U 26027H   26062.97352238  .00467053  23774-5  70982-3 0  9992
2 67753  97.5133 193.5449 0232124 265.8734  91.5970 15.70172727  3083
JIELONG-3 DEB           
1 67754U 26027J   26062.92133556  .01734440  24438-5  13663-2 0  9996
2 67754  97.5065 193.7654 0160647 265.2979  92.9933 15.92963274  3031
2026-028A               
1 67756U 26028A   26062.31740280 -.00000045  00000+0  00000+0 0  9998
2 67756   0.4855 289.5469 0042004 229.3235 201.2676  0.99524196   193
JAM-E JAM 1             
1 67757U 26028B   26062.45551936  .00000140  00000+0  00000+0 0  9997
2 67757   0.5076 285.5715 0008219 123.4127 311.0498  1.00297728    63
KUIPER-00159            
1 67764U 26030A   26062.90532519  .00039040  00000+0  11208-2 0  9990
2 67764  51.8843 247.0566 0004491  29.1743 330.9493 15.35461675  4205
